{"type":"FeatureCollection","name":"ne_110m_lakes","crs":{"type":"name","properties":{"name":"urn:ogc:def:crs:OGC:1.3:CRS84"}},"features":[{"type":"Feature","properties":{"scalerank":0,"featurecla":"Lake","name":"Lake Baikal","name_alt":null,"admin":null,"min_zoom":1,"min_label":3,"name_abb":"L. Baikal","label":"Lake Baikal","wikidataid":"Q5513","name_ar":"بحيرة بايكال","name_bn":"বৈকাল হ্রদ","name_de":"Baikalsee","name_en":"Baikal","name_es":"Baikal","name_fr":"Baïkal","name_el":"Βαϊκάλη","name_hi":"बयकाल झील","name_hu":"Bajkál-tó","name_id":"Danau Baikal","name_it":"Bajkal","name_ja":"バイカル湖","name_ko":"바이칼호","name_nl":"Baikalmeer","name_pl":"Bajkał","name_pt":"Baikal","name_ru":"Байкал","name_sv":"Bajkalsjön","name_tr":"Baykal","name_vi":"Baikal","name_zh":"贝加尔湖","ne_id":1159113127,"name_fa":"دریاچه بایکال","name_he":"ימת באיקל","name_uk":"Байкал","name_ur":"جھیل بیکال","name_zht":"贝加尔湖"},"geometry":{"type":"Polygon","coordinates":[[[106.57998579307912,52.79998159444554],[106.53998823448521,52.93999888774037],[107.0800069519353,53.18001007751998],[107.2999935242018,53.37999787048953],[107.59997521365611,53.51998932556822],[108.03994835818912,53.859968573616456],[108.37997928266967,54.25999583598784],[109.05270307824526,55.027597561251326],[109.19346967980832,55.53560272889659],[109.50699059452313,55.73091380474372],[109.92980716353523,55.7129562445223],[109.70000206913326,54.980003567110515],[109.66000451053935,54.71999359803395],[109.47996382043448,54.33999095317566],[109.31997358605884,53.81999685323869],[109.22003136600637,53.619983222052994],[108.99999311730755,53.78002513286093],[108.60001753136845,53.4399942083804],[108.800005324338,53.37999787048953],[108.76000776574409,53.200008856816936],[108.45997439985749,53.14001251892607],[108.17999148970011,52.79998159444554],[107.79996300662566,52.579995022179034],[107.31999230349876,52.42000478780339],[106.64003380740229,52.32001089131862],[106.1000150899522,52.03997630472897],[105.740037062607,51.759993394571595],[105.24001590375084,51.52000804300813],[104.81998986208251,51.46001170511727],[104.30002160036167,51.50000926371118],[103.7600028829116,51.60000316019595],[103.6200114278329,51.73999461527464],[103.85999677939637,51.85998729105637],[104.39996382041414,51.85998729105637],[105.05997521364597,52.0000045843512],[105.4800012553143,52.28001333272471],[105.98002241417046,52.51999868428817],[106.26000532432784,52.619992580772944],[106.57998579307912,52.79998159444554]]]}},{"type":"Feature","properties":{"scalerank":0,"featurecla":"Lake","name":"Lake Winnipeg","name_alt":null,"admin":null,"min_zoom":1,"min_label":3,"name_abb":"L. Winnipeg","label":"Lake Winnipeg","wikidataid":"Q3272","name_ar":"بحيرة وينيبيغ","name_bn":"লেক উইন্নিপেগ","name_de":"Winnipegsee","name_en":"Winnipeg","name_es":"Winnipeg","name_fr":"Winnipeg","name_el":"Λίμνη Γουίνιπεγκ","name_hi":"विनिपेग झील","name_hu":"Winnipeg-tó","name_id":"Danau Winnipeg","name_it":"Winnipeg","name_ja":"ウィニペグ湖","name_ko":"위니펙호","name_nl":"Winnipegmeer","name_pl":"Winnipeg","name_pt":"Winnipeg","name_ru":"Виннипег","name_sv":"Winnipegsjön","name_tr":"Winnipeg","name_vi":"Winnipeg","name_zh":"溫尼伯湖","ne_id":1159106747,"name_fa":"دریاچه وینیپگ","name_he":"אגם ויניפג","name_uk":"Вінніпег","name_ur":"جھیل ونیپیگ","name_zht":"溫尼伯湖"},"geometry":{"type":"Polygon","coordinates":[[[-98.95540137408423,53.92978343364277],[-97.95799455441879,54.337097072967325],[-97.8050064766187,54.05938792583079],[-97.64380184608419,53.42521474874492],[-96.39258622921722,51.39730235453108],[-96.23789282915149,50.6910147161819],[-96.72558915890605,50.448910630894474],[-96.92110694048235,50.75405996357799],[-97.23568722205913,51.49778717712263],[-98.20097713905517,52.18456696228162],[-99.23680538612963,53.21628693298888],[-98.95540137408423,53.92978343364277]]]}},{"type":"Feature","properties":{"scalerank":0,"featurecla":"Lake","name":"Great Slave Lake","name_alt":null,"admin":null,"min_zoom":1,"min_label":3,"name_abb":"Great Slave L.","label":"Great Slave Lake","wikidataid":"Q5539","name_ar":"بحيرة جريت سليف","name_bn":"গ্রেট স্লেভ লেক","name_de":"Großer Sklavensee","name_en":"Great Slave","name_es":"Gran Esclavo","name_fr":"Grand Esclaves","name_el":"Μεγάλη Λίμνη των Σκλάβων","name_hi":"ग्रेट स्लाव झील","name_hu":"Nagy-Rabszolga-tó","name_id":"Danau Great Slave","name_it":"Grande Schiavi","name_ja":"グレートスレーブ湖","name_ko":"그레이트슬레이브호","name_nl":"Great Slave","name_pl":"Wielkie Jezioro Niewolnicze","name_pt":"Grande Escravo","name_ru":"Большое Невольничье озеро","name_sv":"Stora Slavsjön","name_tr":"Büyük Esir","name_vi":"Slave Lớn","name_zh":"大奴湖","ne_id":1159106729,"name_fa":"دریاچه گریت اسلیو","name_he":"ימת העבדים הגדולה","name_uk":"Велике Невільниче озеро","name_ur":"گریٹ سلیو جھیل","name_zht":"大奴湖"},"geometry":{"type":"Polygon","coordinates":[[[-115.00000342492967,61.9723932969562],[-115.80669837122196,62.54171255151576],[-116.0585951404287,62.77880402287089],[-115.84279435917783,62.7503044704619],[-114.45259497766185,62.42820526798667],[-113.35341142459757,62.04448192000336],[-111.77890804731261,62.44360484480964],[-111.04001258018727,62.92000987410843],[-110.20001217328286,63.08000010848407],[-109.40000932497237,62.87817780216814],[-109.09010576051801,62.814099026126215],[-109.11651241741916,62.6928144395372],[-110.10089677614705,62.51561595320837],[-111.27599300824811,62.34911448836395],[-112.63050981326654,61.55991201440246],[-113.64000891808828,61.07999298770784],[-115.3409903634076,60.87659455020702],[-116.43999304895887,60.86000641544133],[-118.06110856817108,61.31196849226605],[-118.3474735177165,61.36137116153708],[-118.3849906075604,61.52110301375126],[-118.17960262741634,61.55629466414203],[-116.8028132800801,61.32589529076871],[-115.67879920129957,61.69179026961132],[-115.00000342492967,61.9723932969562]]]}},{"type":"Feature","properties":{"scalerank":0,"featurecla":"Lake","name":"Lake Ontario","name_alt":"Great Lakes","admin":"admin-0","min_zoom":1,"min_label":3,"name_abb":"L. Ontario","label":"Lake Ontario","wikidataid":"Q1062","name_ar":"بحيرة أونتاريو","name_bn":"লেক অন্টারিও","name_de":"Ontariosee","name_en":"Ontario","name_es":"Ontario","name_fr":"Ontario","name_el":"Λίμνη Οντάριο","name_hi":"ओण्टारियो झील","name_hu":"Ontario-tó","name_id":"Danau Ontario","name_it":"Ontario","name_ja":"オンタリオ湖","name_ko":"온타리오호","name_nl":"Ontariomeer","name_pl":"Ontario","name_pt":"Ontário","name_ru":"Онтарио","name_sv":"Ontariosjön","name_tr":"Ontario","name_vi":"Ontario","name_zh":"安大略湖","ne_id":1159106765,"name_fa":"دریاچه انتاریو","name_he":"ימת אונטריו","name_uk":"Онтаріо","name_ur":"جھیل انٹاریو","name_zht":"安大略湖"},"geometry":{"type":"Polygon","coordinates":[[[-79.05630591502026,43.25410431576152],[-79.36168779164908,43.20237620703736],[-79.76047481964547,43.29720246029295],[-79.46116492381094,43.639197089200565],[-79.1561706204243,43.75743276628437],[-78.45052893747877,43.9031861435636],[-77.60536088734519,44.039327704436545],[-77.16148617217414,43.850140285815996],[-76.88269181995948,44.0694550644627],[-76.56555355498425,44.20802541765336],[-76.35303422718391,44.134670722015045],[-76.23926856149336,43.979150499032656],[-76.17999569365458,43.5900011256587],[-76.9300015937227,43.2599954290428],[-77.74915056019732,43.342832750006664],[-78.53499406605984,43.379988104824534],[-79.05630591502026,43.25410431576152]]]}},{"type":"Feature","properties":{"scalerank":0,"featurecla":"Lake","name":"Lake Erie","name_alt":"Great Lakes","admin":"admin-0","min_zoom":1,"min_label":3,"name_abb":"L. Erie","label":"Lake Erie","wikidataid":"Q5492","name_ar":"بحيرة إري","name_bn":"ইরি হ্রদ","name_de":"Eriesee","name_en":"Erie","name_es":"Erie","name_fr":"Érié","name_el":"Λίμνη Ήρι","name_hi":"ईरी झील","name_hu":"Erie-tó","name_id":"Danau Erie","name_it":"Erie","name_ja":"エリー湖","name_ko":"이리호","name_nl":"Eriemeer","name_pl":"Erie","name_pt":"Erie","name_ru":"Эри","name_sv":"Eriesjön","name_tr":"Erie","name_vi":"Erie","name_zh":"伊利湖","ne_id":1159106757,"name_fa":"دریاچه ایری","name_he":"ימת אירי","name_uk":"Ері","name_ur":"جھیل ایری","name_zht":"伊利湖"},"geometry":{"type":"Polygon","coordinates":[[[-83.12001135937246,42.08001577409016],[-82.57123348664891,42.01702220312636],[-81.82918575715374,42.33552989355732],[-81.39226152212595,42.61517690690481],[-81.09496700715081,42.66075552018623],[-80.54515560578142,42.560089830081665],[-80.27917700877515,42.71566172949635],[-79.79135148793986,42.84203644466612],[-78.92000932485044,42.96500051530464],[-78.90057898630869,42.8667119410855],[-79.76220598012725,42.269616604169045],[-80.51644934764329,41.980331936199136],[-81.03119828970264,41.845508124349635],[-81.62351355663209,41.568935858723535],[-82.34744869660895,41.435920722004255],[-82.84610043000939,41.48710622818935],[-83.46283281119673,41.69396698665372],[-83.12001135937246,42.08001577409016],[-83.12001135937246,42.08001577409016]]]}},{"type":"Feature","properties":{"scalerank":0,"featurecla":"Lake","name":"Lake Superior","name_alt":"Great Lakes","admin":"admin-0","min_zoom":1,"min_label":3,"name_abb":"L. Superior","label":"Lake Superior","wikidataid":"Q1066","name_ar":"بحيرة سوبيريور","name_bn":"সুপিরিয়র হ্রদ","name_de":"Oberer","name_en":"Superior","name_es":"Superior","name_fr":"Supérieur","name_el":"λίμνη Σουπίριορ","name_hi":"सुपीरियर झील","name_hu":"Felső-tó","name_id":"Danau Superior","name_it":"Superiore","name_ja":"スペリオル湖","name_ko":"슈피리어호","name_nl":"Bovenmeer","name_pl":"Jezioro Górne","name_pt":"Superior","name_ru":"Верхнее озеро","name_sv":"Övre sjön","name_tr":"Superior","name_vi":"Thượng","name_zh":"苏必利尔湖","ne_id":1159112991,"name_fa":"دریاچه سوپریور","name_he":"ימת סופיריור","name_uk":"Озеро Верхнє","name_ur":"جھیل سپیریئر","name_zht":"苏必利尔湖"},"geometry":{"type":"Polygon","coordinates":[[[-89.60000342482806,48.00998973244721],[-89.19405921095924,48.40546946877693],[-88.62641944044917,48.56251414651193],[-88.40423661981026,48.80632355406499],[-88.17895321323383,48.93670319273738],[-87.24903581414156,48.73511343036678],[-86.56000810417788,48.71108388935106],[-86.32103044304411,48.57729360614741],[-85.98652889681881,48.01035146747326],[-84.8642201403039,47.86007640236849],[-85.04061764193222,47.575700995466306],[-84.64500871452178,47.28220469826462],[-84.81528255892351,46.90233124448706],[-84.39559241406505,46.77683502866624],[-84.60490780306328,46.439594631529474],[-84.9100054593145,46.48000560158172],[-85.11999264193253,46.76001434995524],[-86.1026200019625,46.67265534116582],[-86.99000769727856,46.45000743263628],[-87.69427995476835,46.83104360614041],[-88.2612220934425,46.958581041036766],[-87.93992387566777,47.485913194359185],[-88.82260901564527,47.154796454449],[-89.62498897984119,46.83083690041124],[-90.39703487828177,46.57648550067064],[-91.00999487991183,46.92000458433087],[-92.01192338740282,46.71167104754619],[-92.00877112503301,46.85843211525511],[-91.33000118687926,47.28000844989221],[-90.61999284540505,47.68000987404746],[-89.60000342482806,48.00998973244721]]]}},{"type":"Feature","properties":{"scalerank":0,"featurecla":"Lake","name":"Lake Victoria","name_alt":null,"admin":"admin-0","min_zoom":1,"min_label":3,"name_abb":"L. Victoria","label":"Lake Victoria","wikidataid":"Q5505","name_ar":"بحيرة فيكتوريا","name_bn":"ভিক্টোরিয়া হ্রদ","name_de":"Victoriasee","name_en":"Nyanza","name_es":"Victoria","name_fr":"Victoria","name_el":"Βικτόρια","name_hi":"विक्टोरिया झील","name_hu":"Viktória-tó","name_id":"Danau Victoria","name_it":"Vittoria","name_ja":"ヴィクトリア湖","name_ko":"빅토리아호","name_nl":"Victoriameer","name_pl":"Jezioro Wiktorii","name_pt":"Vitória","name_ru":"Виктория","name_sv":"Victoriasjön","name_tr":"Victoria","name_vi":"Victoria","name_zh":"維多利亞湖","ne_id":1159113191,"name_fa":"دریاچه ویکتوریا","name_he":"אגם ויקטוריה","name_uk":"Вікторія","name_ur":"جھیل وکٹوریہ","name_zht":"維多利亞湖"},"geometry":{"type":"Polygon","coordinates":[[[33.85036827976734,0.128157863766091],[33.85036827976734,0.128157863766091],[34.13624230320599,-0.319308363449238],[34.0726286150547,-1.059831638191795],[33.579428745261055,-1.506005954599821],[33.251748488098286,-1.957968031424549],[33.64717654799571,-2.30089283611342],[33.07672041192572,-2.547131035984201],[32.95176679864397,-2.43044565186915],[32.37309410983957,-2.489925225437091],[31.926558058405476,-2.714511000177573],[31.648022088352292,-2.32921152100937],[31.836020949030114,-1.629305922048232],[31.866199985488578,-1.027378838712494],[31.815143670384202,-0.64042571371094],[32.27284183119332,-0.056120293786734],[32.906136508930246,0.0867650415003],[33.33184695815069,0.324993394365833],[33.85036827976734,0.128157863766091]]]}},{"type":"Feature","properties":{"scalerank":0,"featurecla":"Lake","name":"Lake Ladoga","name_alt":null,"admin":null,"min_zoom":1,"min_label":3,"name_abb":"L. Ladoga","label":"Lake Ladoga","wikidataid":"Q15288","name_ar":"بحيرة لادوغا","name_bn":"লাডোগা হ্রদ","name_de":"Ladogasee","name_en":"Ladoga","name_es":"Ládoga","name_fr":"Ladoga","name_el":"Λάντογκα","name_hi":"लादोगा झील","name_hu":"Ladoga-tó","name_id":"Danau Ladoga","name_it":"Ladoga","name_ja":"ラドガ湖","name_ko":"라도가호","name_nl":"Ladogameer","name_pl":"Ładoga","name_pt":"Ladoga","name_ru":"Ладожское озеро","name_sv":"Ladoga","name_tr":"Ladoga","name_vi":"Ladoga","name_zh":"拉多加湖","ne_id":1159113095,"name_fa":"دریاچه لادوگا","name_he":"ימת לדוגה","name_uk":"Ладозьке озеро","name_ur":"جھیل لاڈوگا","name_zht":"拉多加湖"},"geometry":{"type":"Polygon","coordinates":[[[29.836711460089845,61.22608226179696],[29.836711460089845,61.22608226179696],[30.85199832532828,61.77504100203353],[32.52688317234018,61.11751007755173],[32.94432539239392,60.64260366478942],[32.81575442885176,60.481889960361684],[32.599901971168606,60.533514716221276],[32.583882277158125,60.20893504499601],[31.699440138482714,60.23565176049091],[31.50973595553924,59.92034800886205],[31.106246372204282,59.92768606224749],[31.10893354668346,60.14645823835514],[30.533878208139498,60.63009796817478],[30.502045525847706,60.843211574946466],[29.836711460089845,61.22608226179696]]]}},{"type":"Feature","properties":{"scalerank":0,"featurecla":"Lake","name":"Lake Balkhash","name_alt":"Balqash Köli","admin":null,"min_zoom":1,"min_label":3,"name_abb":"L. Balkhash","label":"Lake Balkhash","wikidataid":"Q134485","name_ar":"بحيرة بالكاش","name_bn":"লেক বালখাশ","name_de":"Balchaschsee","name_en":"Balkhash","name_es":"Baljash","name_fr":"Balkhach","name_el":"Λίμνη Μπαλκάς","name_hi":"बलख़श झील","name_hu":"Balkas-tó","name_id":"Danau Balkhash","name_it":"Balqaš","name_ja":"バルハシ湖","name_ko":"발하시호","name_nl":"Balkasjmeer","name_pl":"Bałchasz","name_pt":"Balkhash","name_ru":"Балхаш","name_sv":"Balchasjsjön","name_tr":"Balkaş","name_vi":"Balkhash","name_zh":"巴尔喀什湖","ne_id":1159113111,"name_fa":"دریاچه بالخاش","name_he":"ימת בלחש","name_uk":"Балхаш","name_ur":"جھیل بالخاش","name_zht":"巴爾喀什湖"},"geometry":{"type":"Polygon","coordinates":[[[78.99076541536459,46.748619696634876],[78.99076541536459,46.748619696634876],[79.2451684915375,46.64516347918655],[78.88989301953086,46.369934800800024],[78.44506229036242,46.29717438413307],[77.20606814973246,46.3955663112168],[75.61128177277294,46.50718740496724],[75.46333214712132,46.6706141220903],[75.40566124868357,46.47080719663377],[74.91122114451494,46.404661363300164],[74.77138471873312,46.107831936215646],[74.27802981964263,46.004065660173566],[74.0999528339648,44.98893382423201],[73.4367375019309,45.60946442319282],[73.4399931171653,45.80586070411809],[73.73713260284359,46.012747300798594],[73.67925499867667,46.18307282163262],[74.02068118682908,46.20490611427593],[74.09432010284502,46.42781240496693],[74.939384800114,46.81678091082786],[76.20313195181177,46.7800131292522],[77.18131513866464,46.64340648048862],[77.85993004752152,46.64785065366573],[78.29700931184618,46.46853343361292],[78.39710656119556,46.657669175801175],[78.99076541536459,46.748619696634876]]]}},{"type":"Feature","properties":{"scalerank":0,"featurecla":"Lake","name":"Lake Tanganyika","name_alt":null,"admin":"admin-0","min_zoom":1,"min_label":3,"name_abb":"L. Tanganyika","label":"Lake Tanganyika","wikidataid":"Q5511","name_ar":"بحيرة تنجانيقا","name_bn":"টাংগানিকা হ্রদ","name_de":"Tanganjikasee","name_en":"Tanganyika","name_es":"Tanganica","name_fr":"Tanganyika","name_el":"Τανγκανίκα","name_hi":"तांगान्यीका झील","name_hu":"Tanganyika-tó","name_id":"Danau Tanganyika","name_it":"Tanganica","name_ja":"タンガニーカ湖","name_ko":"탕가니카호","name_nl":"Tanganyikameer","name_pl":"Tanganika","name_pt":"Tanganica","name_ru":"Танганьика","name_sv":"Tanganyikasjön","name_tr":"Tanganika","name_vi":"Tanganyika","name_zh":"坦干依喀湖","ne_id":1159113185,"name_fa":"دریاچه تانگانیکا","name_he":"אגם טנגניקה","name_uk":"Танганьїка","name_ur":"جھیل ٹانگانیکا","name_zht":"坦干依喀湖"},"geometry":{"type":"Polygon","coordinates":[[[30.806006300588507,-8.578339125201033],[30.46442508313922,-8.498188978716335],[30.566847771941724,-8.1150082332721],[30.27735639824263,-7.848357842646031],[30.14702843600253,-7.299244073112582],[29.536523064906334,-6.7541610652979],[29.19318484875913,-6.038029066597119],[29.371985304489016,-5.616452731960017],[29.101717563602506,-5.054006442895265],[29.281034783655315,-3.455499362810748],[29.652588331833897,-4.420143324403149],[29.600085076625334,-4.896393324405054],[29.79195966972506,-5.040880629093131],[29.758421665167646,-5.466901136907339],[29.951226434048635,-5.860985609565162],[29.722041456834177,-6.244114678577112],[30.52803877129051,-6.922729587433992],[30.604158156056457,-7.541916599155222],[31.189032016735865,-8.729906101113095],[31.022117140433124,-8.786543470904988],[30.806006300588507,-8.578339125201033],[30.806006300588507,-8.578339125201033]]]}},{"type":"Feature","properties":{"scalerank":0,"featurecla":"Lake","name":"Lake Malawi","name_alt":"Lake Nyasa","admin":"admin-0","min_zoom":1,"min_label":3,"name_abb":"L. Malawi","label":"Lake Malawi","wikidataid":"Q5532","name_ar":"بحيرة ملاوي","name_bn":"মালাউই হ্রদ","name_de":"Malawisee","name_en":"Malawi","name_es":"Malaui","name_fr":"Malawi","name_el":"Λίμνη Νιάσα","name_hi":"मलावी झील","name_hu":"Nyasza-tó","name_id":"Danau Malawi","name_it":"Malawi","name_ja":"マラウイ湖","name_ko":"말라위호","name_nl":"Malawimeer","name_pl":"Niasa","name_pt":"Niassa","name_ru":"Малави","name_sv":"Malawisjön","name_tr":"Malavi","name_vi":"Malawi","name_zh":"马拉维湖","ne_id":1159113163,"name_fa":"دریاچه مالاوی","name_he":"אגם מלאווי","name_uk":"Ньяса","name_ur":"جھیل ملاوی","name_zht":"马拉维湖"},"geometry":{"type":"Polygon","coordinates":[[[35.2602047055542,-14.277474460510291],[35.236226840970915,-14.401291192281633],[34.881209751125766,-14.012012627826891],[34.706543409979076,-14.262023207255027],[34.54675988133266,-14.047669366108266],[34.55110070164528,-13.67208505621096],[34.3209338722171,-13.379389743709737],[34.32997724786827,-12.944584242405995],[34.032527703596315,-12.208556817272836],[34.322690870915096,-11.652983493702834],[34.25990400568048,-10.447579034062642],[33.906592238100984,-9.801726983278854],[33.99557905450757,-9.495440769084837],[34.52422895685345,-10.03013681400887],[34.60789310073403,-11.080511976773494],[34.93702029800096,-11.463434340056267],[34.69388268406766,-12.422393894096615],[34.86756717300062,-13.701127211159019],[35.05597944513687,-13.742933444883136],[35.2602047055542,-14.277474460510291]]]}},{"type":"Feature","properties":{"scalerank":1,"featurecla":"Lake","name":"Vänern","name_alt":null,"admin":null,"min_zoom":1.7,"min_label":3.6,"name_abb":"Vänern","label":"Vänern","wikidataid":"Q173596","name_ar":"بحيرة فنرن","name_bn":"ভেনার্ন","name_de":"Vänern","name_en":"Vänern","name_es":"Vänern","name_fr":"Vänern","name_el":"Βένερν","name_hi":"वेनर्न","name_hu":"Vänern-tó","name_id":"Vänern","name_it":"Vänern","name_ja":"ヴェーネルン湖","name_ko":"베네른호","name_nl":"Vänermeer","name_pl":"Wener","name_pt":"Vänern","name_ru":"Венерн","name_sv":"Vänern","name_tr":"Vänern","name_vi":"Vänern","name_zh":"维纳恩湖","ne_id":1159113235,"name_fa":"دریاچه ونرن","name_he":"ונן","name_uk":"Венерн","name_ur":"وینرن","name_zht":"維納恩湖"},"geometry":{"type":"Polygon","coordinates":[[[13.979281447005576,59.20491364199721],[13.979281447005576,59.20491364199721],[13.984449090234762,59.086212877022774],[13.91892337408865,58.902503160225166],[13.28268313971111,58.608670966213566],[12.830100945698888,58.50903880475484],[12.460149366921371,58.50619660097878],[12.537767368223768,58.77594757754237],[12.522161085671598,58.880282294339665],[12.697085808979608,58.953843695707135],[13.027039829163215,58.993531195707305],[13.195298292705559,59.12900096296045],[13.59144982265505,59.336481838612315],[13.979281447005576,59.20491364199721]]]}},{"type":"Feature","properties":{"scalerank":1,"featurecla":"Lake","name":"Lake Okeechobee","name_alt":null,"admin":null,"min_zoom":1.7,"min_label":3.6,"name_abb":"L. Okeechobee","label":"Lake Okeechobee","wikidataid":"Q202905","name_ar":"بحيرة أوكي تشوبي","name_bn":"লেক ওকীচোবী","name_de":"Okeechobeesee","name_en":"Okeechobee","name_es":"Okeechobee","name_fr":"Okeechobee","name_el":"Λίμνη Οκιτσόμπι","name_hi":"ओकेचोबी झील","name_hu":"Okeechobbee-tó","name_id":"Danau Okeechobee","name_it":"Okeechobee","name_ja":"オキーチョビー湖","name_ko":"오키초비호","name_nl":"Okeechobeemeer","name_pl":"Okeechobee","name_pt":"Okeechobee","name_ru":"Окичоби","name_sv":"Okeechobee","name_tr":"Okeechobee","name_vi":"Hồ Okeechobee","name_zh":"奧基喬比湖","ne_id":1159106781,"name_fa":"دریاچه اوکیچوبی","name_he":"אגם אוקיצ'ובי","name_uk":"Окічобі","name_ur":"جھیل اوکیجوبی","name_zht":"奧基喬比湖"},"geometry":{"type":"Polygon","coordinates":[[[-80.70643775096435,26.788959458924822],[-80.93244462759287,26.823272609966622],[-80.91970638703292,27.068916530866048],[-80.69369951040441,27.034629218040394],[-80.70643775096435,26.788959458924822],[-80.70643775096435,26.788959458924822]]]}},{"type":"Feature","properties":{"scalerank":1,"featurecla":"Lake","name":"Lago de Nicaragua","name_alt":null,"admin":null,"min_zoom":1.7,"min_label":3.6,"name_abb":"L. de Nicaragua","label":"Lago de Nicaragua","wikidataid":"Q173862","name_ar":"بحيرة نيكاراغوا","name_bn":"নিকারাগুয়া হ্রদ","name_de":"Nicaraguasee","name_en":"Nicaragua","name_es":"Cocibolca","name_fr":"Nicaragua","name_el":"Λίμνη Νικαράγουα","name_hi":"निकारागुआ झील","name_hu":"Nicaragua-tó","name_id":"Danau Nikaragua","name_it":"Nicaragua","name_ja":"ニカラグア湖","name_ko":"니카라과호","name_nl":"Meer van Nicaragua","name_pl":"Nikaragua","name_pt":"Nicarágua","name_ru":"Никарагуа","name_sv":"Nicaraguasjön","name_tr":"Nikaragua","name_vi":"Nicaragua","name_zh":"尼加拉瓜湖","ne_id":1159106791,"name_fa":"دریاچه نیکاراگوئه","name_he":"אגם ניקרגואה","name_uk":"Нікарагуа","name_ur":"جھیل نکاراگوا","name_zht":"尼加拉瓜湖"},"geometry":{"type":"Polygon","coordinates":[[[-84.85548682324658,11.147898667846633],[-85.29013729525353,11.176165676310276],[-85.79132117383625,11.509737046754324],[-85.8851655748783,11.900100816287136],[-85.5653401354239,11.940330918826362],[-85.03684526237491,11.5216484643976],[-84.85548682324658,11.147898667846633],[-84.85548682324658,11.147898667846633]]]}},{"type":"Feature","properties":{"scalerank":1,"featurecla":"Lake","name":"Lake Tana","name_alt":null,"admin":null,"min_zoom":1.7,"min_label":3.6,"name_abb":"L. Tana","label":"Lake Tana","wikidataid":"Q116685","name_ar":"بحيرة تانا","name_bn":"তানা হ্রদ","name_de":"Tanasee","name_en":"Tana","name_es":"Tana","name_fr":"Tana","name_el":"Τάνα","name_hi":"ताना झील","name_hu":"Tana-tó","name_id":"Danau Tana","name_it":"Tana","name_ja":"タナ湖","name_ko":"타나호","name_nl":"Tanameer","name_pl":"Jezioro Tana","name_pt":"Tana","name_ru":"Тана","name_sv":"Tanasjön","name_tr":"Tana Gölü","name_vi":"Tana","name_zh":"塔纳湖","ne_id":1159113265,"name_fa":"دریاچه تانا","name_he":"אגם טאנה","name_uk":"Тана","name_ur":"جھیل ٹانا","name_zht":"塔納湖"},"geometry":{"type":"Polygon","coordinates":[[[37.14370730972843,11.850594794151519],[37.01482628759251,12.035596421756424],[37.24401126480697,12.233878892460353],[37.518361443844526,12.160601711470477],[37.48187788264647,11.825092474815477],[37.33635704931254,11.713393866416595],[37.14370730972843,11.850594794151519],[37.14370730972843,11.850594794151519]]]}},{"type":"Feature","properties":{"scalerank":1,"featurecla":"Lake","name":"Lago Titicaca","name_alt":null,"admin":null,"min_zoom":1.7,"min_label":3.6,"name_abb":"L. Titicaca","label":"Lago Titicaca","wikidataid":"Q35342","name_ar":"بحيرة تيتيكاكا","name_bn":"তিতিকাকা হ্রদ","name_de":"Titicacasee","name_en":"Titicaca","name_es":"Titicaca","name_fr":"Titicaca","name_el":"Τιτικάκα","name_hi":"टीटीकाका झील","name_hu":"Titicaca-tó","name_id":"Danau Titicaca","name_it":"Titicaca","name_ja":"チチカカ湖","name_ko":"티티카카호","name_nl":"Titicacameer","name_pl":"Titicaca","name_pt":"Titicaca","name_ru":"Титикака","name_sv":"Titicacasjön","name_tr":"Titikaka","name_vi":"Titicaca","name_zh":"的的喀喀湖","ne_id":1159113279,"name_fa":"دریاچه تیتیکاکا","name_he":"אגם טיטיקקה","name_uk":"Тітікака","name_ur":"جھیل ٹیٹیکاکا","name_zht":"的的喀喀湖"},"geometry":{"type":"Polygon","coordinates":[[[-69.40673987494259,-16.126198825752063],[-69.7290974595793,-15.928794854397104],[-69.98365556504908,-15.73717864345884],[-69.8770212470148,-15.669844252182529],[-69.8679778713637,-15.546079196843493],[-69.88559953477524,-15.35425628017606],[-69.59675411647981,-15.410480238509614],[-68.98697221543571,-15.885903415594846],[-68.9596870591856,-15.91329192470954],[-68.74623755560401,-16.356003920154023],[-68.90524593776611,-16.506640720284835],[-69.00115739609983,-16.536406345284952],[-69.09084184434238,-16.461992282784657],[-69.18205074733753,-16.40116912197712],[-69.25098710801488,-16.227536309476427],[-69.40673987494259,-16.126198825752063],[-69.40673987494259,-16.126198825752063]]]}},{"type":"Feature","properties":{"scalerank":1,"featurecla":"Lake","name":"Cedar Lake","name_alt":null,"admin":null,"min_zoom":1.7,"min_label":5,"name_abb":"Cedar L.","label":"Cedar Lake","wikidataid":"Q1052532","name_ar":"سيدار ليك","name_bn":"সেডার লেক","name_de":"Cedar","name_en":"Cedar","name_es":"Cedar","name_fr":"Cèdres","name_el":"Λίμνη Σένταρ","name_hi":"सिडर लेक","name_hu":"Cedar-tó","name_id":"Danau Cedar","name_it":"Cedar","name_ja":"シーダー湖","name_ko":"시더 레이크","name_nl":"Cedar","name_pl":"Cedar","name_pt":"Cedar","name_ru":"Сидар","name_sv":"Cedar","name_tr":"Cedar Gölü","name_vi":"Hồ Cedar","name_zh":"錫達湖","ne_id":1159123681,"name_fa":"دریاچه سدار","name_he":"סידר לייק","name_uk":"Сідар","name_ur":"کیدار جھیل","name_zht":"錫達湖"},"geometry":{"type":"Polygon","coordinates":[[[-99.40377193886468,53.1258531764781],[-99.54846594928192,53.120427151087455],[-99.80498775917877,53.14290639913442],[-100.43146114785316,53.2841897650204],[-100.60685095905177,53.531616522833886],[-100.33487789589965,53.745246893928496],[-100.42673275429846,53.90740753846039],[-100.4044860501968,53.94507965760117],[-100.32629960813921,54.094011135466346],[-100.23586585162842,54.23033356385231],[-99.99549292682278,54.215864162810576],[-100.04778947630214,54.10013479269293],[-100.18356930214904,53.930351874397985],[-99.87128862180926,53.928465684619326],[-99.91066606321566,53.821314602262134],[-100.05649695514333,53.44332733826322],[-99.66551306842301,53.29581696228607],[-99.39317827024485,53.26791168884846],[-99.40377193886468,53.1258531764781],[-99.40377193886468,53.1258531764781]]]}},{"type":"Feature","properties":{"scalerank":1,"featurecla":"Lake","name":"Lake Onega","name_alt":null,"admin":null,"min_zoom":1.7,"min_label":3.6,"name_abb":"L. Onega","label":"Lake Onega","wikidataid":"Q166162","name_ar":"بحيرة أونيغا","name_bn":"লেক ওনেগা","name_de":"Onegasee","name_en":"Onega","name_es":"Onega","name_fr":"Onega","name_el":"Λίμνη Ονέγκα","name_hi":"ओनेगा झील","name_hu":"Onyega-tó","name_id":"Danau Onega","name_it":"Onega","name_ja":"オネガ湖","name_ko":"오네가호","name_nl":"Onegameer","name_pl":"Onega","name_pt":"Onega","name_ru":"Онежское озеро","name_sv":"Onega","name_tr":"Onega","name_vi":"Onega","name_zh":"奥涅加湖","ne_id":1159113251,"name_fa":"دریاچه اونگا","name_he":"ימת אונגה","name_uk":"Онезьке озеро","name_ur":"جھیل اونیگا","name_zht":"奧涅加湖"},"geometry":{"type":"Polygon","coordinates":[[[35.71464725112901,62.2802298041189],[36.0541614112866,61.716310736733874],[36.391401808423325,61.27605337182331],[36.10945519383887,61.01508738874924],[35.35074181492962,60.948579820389625],[34.866843702948586,61.11637319604125],[35.207288038887384,61.114435329830485],[35.57832482274313,61.08634918887975],[35.16000410334027,61.39428904890701],[34.85733523940689,61.55179881453273],[34.48691857273877,61.86697337508076],[34.265019972477376,62.21914826114994],[34.289824659977455,62.29774811466581],[34.66561567560399,62.22979360620195],[34.62613488133297,62.45223480900245],[34.8356311378443,62.29676626245225],[35.080267368314026,62.1411943630377],[35.21658979669991,62.193284206787894],[35.463706495919666,62.2560193955901],[35.13969526544963,62.48776235620312],[34.614352654770414,62.762448432050576],[34.99541466649072,62.748469957115674],[35.23395307795005,62.675347805422575],[35.71464725112901,62.2802298041189]]]}},{"type":"Feature","properties":{"scalerank":1,"featurecla":"Lake","name":"Great Salt Lake","name_alt":null,"admin":null,"min_zoom":1.7,"min_label":3.6,"name_abb":"Great Salt L.","label":"Great Salt Lake","wikidataid":"Q178741","name_ar":"البحيرة المالحة الكبرى","name_bn":"গ্রেট সল্ট লেক","name_de":"Großer Salzsee","name_en":"Great Salt","name_es":"Gran Salado","name_fr":"Grand Salé","name_el":"Μεγάλη Αλμυρή Λίμνη","name_hi":"महान नमक झील","name_hu":"Nagy-sóstó","name_id":"Danau Garam Besar","name_it":"Gran Salato","name_ja":"グレートソルト湖","name_ko":"그레이트솔트호","name_nl":"Great Salt","name_pl":"Wielkie Jezioro Słone","name_pt":"Grande Salgado","name_ru":"Большое Солёное озеро","name_sv":"Stora Saltsjön","name_tr":"Büyük Tuz","name_vi":"Muối Lớn","name_zh":"大盐湖","ne_id":1159113251,"name_fa":"دریاچه نمک یوتا","name_he":"ימת המלח הגדולה","name_uk":"Велике Солоне озеро","name_ur":"گریٹ سالٹ لیک","name_zht":"大鹽湖"},"geometry":{"type":"Polygon","coordinates":[[[-112.18405127648089,41.34124949804567],[-112.13875688357706,41.142346910154174],[-112.17193315310845,40.851460272783186],[-112.67882727745939,41.130487168943205],[-112.70549231652205,41.16753917089636],[-112.87814327680917,41.62815705013003],[-112.58955624067522,41.43891795507716],[-112.40532975955472,41.33801972102742],[-112.21901038292629,41.42855683040267],[-112.18405127648089,41.34124949804567]]]}},{"type":"Feature","properties":{"scalerank":1,"featurecla":"Lake","name":"Great Bear Lake","name_alt":null,"admin":null,"min_zoom":1.7,"min_label":3.6,"name_abb":"Great Bear L.","label":"Great Bear Lake","wikidataid":"Q5525","name_ar":"بحيرة الدب العظيم","name_bn":"গ্রেট বেয়ার লেক","name_de":"Großer Bärensee","name_en":"Great Bear","name_es":"Gran Oso","name_fr":"grand l'Ours","name_el":"Μεγάλη Λίμνη των Άρκτων","name_hi":"ग्रेट बियर झील","name_hu":"Nagy-Medve-tó","name_id":"Danau Beruang Besar","name_it":"Grande Orsi","name_ja":"グレートベア湖","name_ko":"그레이트베어호","name_nl":"Groot Berenmeer","name_pl":"Wielkie Jezioro Niedźwiedzie","name_pt":"Grande Urso","name_ru":"Большое Медвежье озеро","name_sv":"Stora Björnsjön","name_tr":"Büyük Ayı","name_vi":"Gấu lớn","name_zh":"大熊湖","ne_id":1159106721,"name_fa":"دریاچه گریت بر","name_he":"ימת הדובים הגדולה","name_uk":"Велике Ведмеже озеро","name_ur":"گریٹ بیئر لیک","name_zht":"大熊湖"},"geometry":{"type":"Polygon","coordinates":[[[-117.7592923653704,66.22368419052789],[-117.97374955938167,65.85489533147692],[-118.10710059291085,65.76691620550001],[-119.7200520432652,65.73479930283061],[-119.74568355368197,65.65436493596833],[-119.6648099371452,65.52742178004333],[-119.70219783590836,65.36794830999061],[-121.35509436098008,64.87999359807459],[-121.33610327211281,64.99461192489797],[-120.94527441468938,65.37774099390991],[-121.05728308168202,65.4463414577774],[-122.56450374412293,65.0310696478799],[-123.232705851873,65.18041453720339],[-123.17963415590926,65.31937246363624],[-122.32599117087979,65.79378795029179],[-122.35622188377054,65.90184337021411],[-124.95363440005697,66.04925039332666],[-124.89753963280414,66.15115631780624],[-119.48724971579031,66.96929759385118],[-119.35743771042887,66.87519481064767],[-120.1769492193738,66.46527151149239],[-117.60545162643749,66.55934845647975],[-117.61278967982294,66.41997711858856],[-117.7592923653704,66.22368419052789],[-117.7592923653704,66.22368419052789]]]}},{"type":"Feature","properties":{"scalerank":1,"featurecla":"Lake","name":"Lake Athabasca","name_alt":null,"admin":null,"min_zoom":1.7,"min_label":3.7,"name_abb":"L. Athabasca","label":"Lake Athabasca","wikidataid":"Q272463","name_ar":"بحيرة أثاباسكا","name_bn":"আথাবাস্কা হ্রদ","name_de":"Athabascasee","name_en":"Athabasca","name_es":"Athabasca","name_fr":"Athabasca","name_el":"Λίμνη Αθαμπάσκα","name_hi":"अथाबास्का झील","name_hu":"Atapaszka-tó","name_id":"Danau Athabasca","name_it":"Athabasca","name_ja":"アサバスカ湖","name_ko":"레이크 애서배스카","name_nl":"Athabascameer","name_pl":"Athabaska","name_pt":"Athabasca","name_ru":"Атабаска","name_sv":"Athabascasjön","name_tr":"Athabasca","name_vi":"Hồ Athabasca","name_zh":"阿萨巴斯卡湖","ne_id":1159106863,"name_fa":"دریاچه آتاباسکا","name_he":"אגם אתבסקה","name_uk":"Атабаска","name_ur":"جھیل اتھابسکا","name_zht":"阿薩巴斯卡湖"},"geometry":{"type":"Polygon","coordinates":[[[-109.65330135785099,59.03763703066841],[-111.08626298708849,58.56017263450765],[-111.19948605023998,58.685565497463884],[-111.160005255969,58.75985036888345],[-109.09672034385136,59.55042226830068],[-106.54517066122398,59.31968699811746],[-106.54695349813804,59.292815253325685],[-109.65330135785099,59.03763703066841],[-109.65330135785099,59.03763703066841]]]}},{"type":"Feature","properties":{"scalerank":1,"featurecla":"Lake","name":"Reindeer Lake","name_alt":null,"admin":null,"min_zoom":1.7,"min_label":3.7,"name_abb":"Reindeer L.","label":"Reindeer Lake","wikidataid":"Q1134446","name_ar":"بحيرة ريندير","name_bn":"রেইনডিয়ার লেক","name_de":"Reindeer","name_en":"Reindeer","name_es":"Reindeer","name_fr":"Reindeer","name_el":"Λίμνη Ρέιντιρ","name_hi":"रेनडियर झील","name_hu":"Reindeer-tó","name_id":"Danau Reindeer","name_it":"delle Renne","name_ja":"レーンディア湖","name_ko":"레인디어호","name_nl":"Reindeer","name_pl":"Jezioro Reniferowe","name_pt":"Reindeer","name_ru":"Оленье озеро","name_sv":"Reindeer","name_tr":"Reindeer Gölü","name_vi":"Hồ Reindeer","name_zh":"驯鹿湖","ne_id":1159106817,"name_fa":"دریاچه ریندیر","name_he":"אגם האיילים","name_uk":"Оленяче","name_ur":"رین ڈیئر جھیل","name_zht":"馴鹿湖"},"geometry":{"type":"Polygon","coordinates":[[[-101.89514441608819,58.01403025983099],[-101.89514441608819,58.01403025983099],[-101.54384802936804,57.86809601503873],[-101.97090206582807,57.34867035585697],[-101.93403093138781,57.23066722271848],[-103.20416012247362,56.34539826112639],[-103.2825015938281,56.40994212505895],[-103.1487371488406,56.70411021588043],[-103.07832800984292,56.71080231386223],[-103.01440426309787,56.56510061301529],[-102.57680823445028,56.938281968811054],[-102.81322791218561,57.28714956321349],[-102.81369300007623,57.46434804954232],[-102.12874772826359,58.01914622662788],[-101.89514441608819,58.01403025983099]]]}},{"type":"Feature","properties":{"scalerank":0,"featurecla":"Lake","name":"Lake Huron","name_alt":"Great Lakes","admin":"admin-0","min_zoom":1,"min_label":3,"name_abb":"L. Huron","label":"Lake Huron","wikidataid":"Q1383","name_ar":"بحيرة هرون","name_bn":"লেক হুরন","name_de":"Huronsee","name_en":"Huron","name_es":"Hurón","name_fr":"Huron","name_el":"Λίμνη Χιούρον","name_hi":"ह्यूरॉन झील","name_hu":"Huron-tó","name_id":"Danau Huron","name_it":"Huron","name_ja":"ヒューロン湖","name_ko":"휴런호","name_nl":"Huronmeer","name_pl":"Huron","name_pt":"Huron","name_ru":"Гурон","name_sv":"Huronsjön","name_tr":"Huron","name_vi":"Huron","name_zh":"休伦湖","ne_id":1159113021,"name_fa":"دریاچه هیوران","name_he":"ימת יורון","name_uk":"Гурон","name_ur":"جھیل ہیورون","name_zht":"休伦湖"},"geometry":{"type":"Polygon","coordinates":[[[-80.41056433787725,45.590137437515665],[-79.76292945017934,44.824602769543844],[-80.08500281443844,44.493925279308144],[-80.89769222687659,44.63164297136599],[-81.40233842642287,45.25005483660284],[-81.27567949087549,44.6201708033972],[-81.75265296092948,44.06464915625956],[-81.70017554393709,43.590052802090995],[-81.78272864452336,43.310845038417995],[-82.43000179719522,42.98001251888543],[-82.4799987454376,43.39001333268915],[-82.6599877591102,43.970003770516996],[-83.02999101432,44.06999766700177],[-83.6500048489579,43.62999868425261],[-83.84870073112015,43.63831858985161],[-83.89998959016984,43.88998281511303],[-83.34999732128743,44.29001007748441],[-83.25878841829228,44.74574453386644],[-83.33999793163895,45.200006211928155],[-84.08000444205858,45.58998240821879],[-84.93000423861146,45.789996039404485],[-84.75355506055087,45.924483954444085],[-84.71999121777729,45.91998810483469],[-83.83919226757845,46.010215155616294],[-84.33670711946846,46.40876963966737],[-84.14870825879063,46.55576325132161],[-83.95257036002683,46.334278062518635],[-83.20251278352643,46.21015127215355],[-82.44199072948692,46.19963511818216],[-81.63136837434045,46.09754832618957],[-80.73679765493583,45.90381338152733],[-80.41056433787725,45.590137437515665]]]}},{"type":"Feature","properties":{"scalerank":0,"featurecla":"Lake","name":"Lake Michigan","name_alt":"Great Lakes","admin":"admin-0","min_zoom":1,"min_label":3,"name_abb":"L. Michigan","label":"Lake Michigan","wikidataid":"Q1169","name_ar":"بحيرة ميشيغين","name_bn":"মিশিগান হ্রদ","name_de":"Michigansee","name_en":"Michigan","name_es":"Míchigan","name_fr":"Michigan","name_el":"Λίμνη Μίσιγκαν","name_hi":"मिशिगन झील","name_hu":"Michigan-tó","name_id":"Danau Michigan","name_it":"Michigan","name_ja":"ミシガン湖","name_ko":"미시간호","name_nl":"Michiganmeer","name_pl":"Michigan","name_pt":"Michigan","name_ru":"Мичиган","name_sv":"Michigansjön","name_tr":"Michigan","name_vi":"Michigan","name_zh":"密歇根湖","ne_id":1159113005,"name_fa":"دریاچه میشیگان","name_he":"ימת מישיגן","name_uk":"Мічиган","name_ur":"جھیل مشی گن","name_zht":"密歇根湖"},"geometry":{"type":"Polygon","coordinates":[[[-85.53999284538475,46.03000722918408],[-84.75355506055087,45.924483954444085],[-84.93000423861146,45.789996039404485],[-85.06999569369015,45.40999339454619],[-85.29044735384727,45.30824249936349],[-85.46710323763705,44.81457754167923],[-85.55999162468169,45.150009263685774],[-85.95983801954006,44.91059235287753],[-86.20935767286137,44.574798895844935],[-86.47027197950304,44.08423452409818],[-86.52001054558397,43.65999685319804],[-86.18842871778315,43.04140412044818],[-86.21604977084317,42.38170278581012],[-86.62191647006355,41.8944198675139],[-86.8244364082154,41.75618541113313],[-87.09444576694042,41.64616628678374],[-87.4342183092595,41.640714423176945],[-87.52617652052288,41.70851390234388],[-87.79569495314115,42.23411489518453],[-87.80344641798493,42.49399567318035],[-87.77672970249003,42.740853990238634],[-87.90214840366241,43.23051402442029],[-87.71221167677363,43.79650014909703],[-87.486359829442,44.49335683855294],[-86.9674767727993,45.26287059181122],[-87.11806189649782,45.25933075619923],[-87.85282324903983,44.61505483660031],[-87.98831885450912,44.73331635190026],[-87.5964306302237,45.093707790703775],[-87.00000708692704,45.73999909116209],[-86.31999691439827,45.829993597998396],[-85.53999284538475,46.03000722918408]]]}}]}
